$$SOE
2459580.500000000, A.D. 2022-Jan-01 00:00:00.0000, -1.145801086179953E+07, -3.464824060314932E+08, -1.535420634860203E+07,
2459587.500000000, A.D. 2022-Jan-08 00:00:00.0000, 4.916313408348843E+05, -3.431929137852014E+08, -1.765502521484075E+07,
2459594.500000000, A.D. 2022-Jan-15 00:00:00.0000, 1.244063544793622E+07, -3.394929059071672E+08, -1.993471052709541E+07,
2459601.500000000, A.D. 2022-Jan-22 00:00:00.0000, 2.437426986606088E+07, -3.353747328004555E+08, -2.218982588358200E+07,
2459608.500000000, A.D. 2022-Jan-29 00:00:00.0000, 3.627694582995552E+07, -3.308311619768107E+08, -2.441677897068027E+07,
2459615.500000000, A.D. 2022-Feb-05 00:00:00.0000, 4.813219827203280E+07, -3.258554560754523E+08, -2.661182187413025E+07,
2459622.500000000, A.D. 2022-Feb-12 00:00:00.0000, 5.992267428301895E+07, -3.204414584034008E+08, -2.877105312471789E+07,
2459629.500000000, A.D. 2022-Feb-19 00:00:00.0000, 7.163012894348536E+07, -3.145836835458744E+08, -3.089042138729480E+07,
2459636.500000000, A.D. 2022-Feb-26 00:00:00.0000, 8.323542840871446E+07, -3.082774135332617E+08, -3.296573096672212E+07,
2459643.500000000, A.D. 2022-Mar-05 00:00:00.0000, 9.471856167652544E+07, -3.015187997615901E+08, -3.499264943708234E+07,
2459650.500000000, A.D. 2022-Mar-12 00:00:00.0000, 1.060586625857903E+08, -2.943049700989296E+08, -3.696671766189867E+07,
2459657.500000000, A.D. 2022-Mar-19 00:00:00.0000, 1.172340434689036E+08, -2.866341402719159E+08, -3.888336244468366E+07,
2459664.500000000, A.D. 2022-Mar-26 00:00:00.0000, 1.282222418227044E+08, -2.785057283862333E+08, -4.073791203119846E+07,
2459671.500000000, A.D. 2022-Apr-02 00:00:00.0000, 1.390000813539868E+08, -2.699204711882166E+08, -4.252561466627297E+07,
2459678.500000000, A.D. 2022-Apr-09 00:00:00.0000, 1.495437488503903E+08, -2.608805403057637E+08, -4.424166038332252E+07,
2459685.500000000, A.D. 2022-Apr-16 00:00:00.0000, 1.598288882337562E+08, -2.513896557431477E+08, -4.588120610718988E+07,
2459692.500000000, A.D. 2022-Apr-23 00:00:00.0000, 1.698307112731367E+08, -2.414531931612315E+08, -4.743940389900035E+07,
2459699.500000000, A.D. 2022-Apr-30 00:00:00.0000, 1.795241235013493E+08, -2.310782845095442E+08, -4.891143230531652E+07,
2459706.500000000, A.D. 2022-May-07 00:00:00.0000, 1.888838684011640E+08, -2.202739110541625E+08, -5.029253110638224E+07,
2459713.500000000, A.D. 2022-May-14 00:00:00.0000, 1.978846907635283E+08, -2.090509826529879E+08, -5.157803908448114E+07,
2459720.500000000, A.D. 2022-May-21 00:00:00.0000, 2.065015161322248E+08, -1.974223993107726E+08, -5.276343418228563E+07,
2459727.500000000, A.D. 2022-May-28 00:00:00.0000, 2.147096441792834E+08, -1.854030927637580E+08, -5.384437557172199E+07,
2459734.500000000, A.D. 2022-Jun-04 00:00:00.0000, 2.224849539660263E+08, -1.730100453274142E+08, -5.481674704076995E+07,
2459741.500000000, A.D. 2022-Jun-11 00:00:00.0000, 2.298041182691384E+08, -1.602622832135593E+08, -5.567670095105559E+07,
2459748.500000000, A.D. 2022-Jun-18 00:00:00.0000, 2.366448234236850E+08, -1.471808419684358E+08, -5.642070190875247E+07,
2459755.500000000, A.D. 2022-Jun-25 00:00:00.0000, 2.429859905538937E+08, -1.337887023418446E+08, -5.704556921152763E+07,
2459762.500000000, A.D. 2022-Jul-02 00:00:00.0000, 2.488079936911453E+08, -1.201106956736524E+08, -5.754851708560430E+07,
2459769.500000000, A.D. 2022-Jul-09 00:00:00.0000, 2.540928702135440E+08, -1.061733784959385E+08, -5.792719170444314E+07,
2459776.500000000, A.D. 2022-Jul-16 00:00:00.0000, 2.588245184739095E+08, -9.200487609698981E+07, -5.817970388779622E+07,
2459783.500000000, A.D. 2022-Jul-23 00:00:00.0000, 2.629888754183514E+08, -7.763469681215146E+07, -5.830465633449449E+07,
2459790.500000000, A.D. 2022-Jul-30 00:00:00.0000, 2.665740695622182E+08, -6.309352323322702E+07, -5.830116484045313E+07,
2459797.500000000, A.D. 2022-Aug-06 00:00:00.0000, 2.695705487169082E+08, -4.841298344864715E+07, -5.816887310024722E+07,
2459804.500000000, A.D. 2022-Aug-13 00:00:00.0000, 2.719711781694707E+08, -3.362540413339049E+07, -5.790796030584826E+07,
2459811.500000000, A.D. 2022-Aug-20 00:00:00.0000, 2.737713051699807E+08, -1.876355121124350E+07, -5.751914117363798E+07,
2459818.500000000, A.D. 2022-Aug-27 00:00:00.0000, 2.749687882415580E+08, -3.860364464629564E+06, -5.700365843286058E+07,
2459825.500000000, A.D. 2022-Sep-03 00:00:00.0000, 2.755639911033377E+08, 1.105130796057431E+07, -5.636326801109773E+07,
2459832.500000000, A.D. 2022-Sep-10 00:00:00.0000, 2.755597419473306E+08, 2.593896940410627E+07, -5.560021735296972E+07,
2459839.500000000, A.D. 2022-Sep-17 00:00:00.0000, 2.749612598089600E+08, 4.077072342199467E+07, -5.471721750817309E+07,
2459846.500000000, A.D. 2022-Sep-24 00:00:00.0000, 2.737760507563279E+08, 5.551550640036032E+07, -5.371740980190828E+07,
2459853.500000000, A.D. 2022-Oct-01 00:00:00.0000, 2.720137776028447E+08, 7.014329978368850E+07, -5.260432804333955E+07,
2459860.500000000, A.D. 2022-Oct-08 00:00:00.0000, 2.696861076180461E+08, 8.462531902656940E+07, -5.138185727819946E+07,
2459867.500000000, A.D. 2022-Oct-15 00:00:00.0000, 2.668065417682345E+08, 9.893417798423848E+07, -5.005418994653688E+07,
2459874.500000000, A.D. 2022-Oct-22 00:00:00.0000, 2.633902279869100E+08, 1.130440255314644E+08, -4.862578042794537E+07,
2459881.500000000, A.D. 2022-Oct-29 00:00:00.0000, 2.594537656592762E+08, 1.269306511953276E+08, -4.710129941824137E+07,
2459888.500000000, A.D. 2022-Nov-05 00:00:00.0000, 2.550150079079946E+08, 1.405715627723569E+08, -4.548558902579729E+07,
2459895.500000000, A.D. 2022-Nov-12 00:00:00.0000, 2.500928638805696E+08, 1.539460381843859E+08, -4.378361912049401E+07,
2459902.500000000, A.D. 2022-Nov-19 00:00:00.0000, 2.447071040528025E+08, 1.670351522278829E+08, -4.200044564304549E+07,
2459909.500000000, A.D. 2022-Nov-26 00:00:00.0000, 2.388781720257973E+08, 1.798217799102505E+08, -4.014117149238478E+07,
2459916.500000000, A.D. 2022-Dec-03 00:00:00.0000, 2.326270056326197E+08, 1.922905787975855E+08, -3.821091043091834E+07,
2459923.500000000, A.D. 2022-Dec-10 00:00:00.0000, 2.259748694737065E+08, 2.044279530430089E+08, -3.621475430187231E+07,
2459930.500000000, A.D. 2022-Dec-17 00:00:00.0000, 2.189432004197528E+08, 2.162220018160704E+08, -3.415774373349103E+07,
2459937.500000000, A.D. 2022-Dec-24 00:00:00.0000, 2.115534671844773E+08, 2.276624548046813E+08, -3.204484240898101E+07,
2459944.500000000, A.D. 2022-Dec-31 00:00:00.0000, 2.038270448516321E+08, 2.387405975411219E+08, -2.988091489875920E+07,
2459951.500000000, A.D. 2023-Jan-07 00:00:00.0000, 1.957851046019176E+08, 2.494491899940229E+08, -2.767070788516358E+07,
2459958.500000000, A.D. 2023-Jan-14 00:00:00.0000, 1.874485164465023E+08, 2.597823811858602E+08, -2.541883439442615E+07,
2459965.500000000, A.D. 2023-Jan-21 00:00:00.0000, 1.788377638172231E+08, 2.697356187017361E+08, -2.312976102762945E+07,
2459972.500000000, A.D. 2023-Jan-28 00:00:00.0000, 1.699728729842247E+08, 2.793055546866315E+08, -2.080779830839069E+07,
2459979.500000000, A.D. 2023-Feb-04 00:00:00.0000, 1.608733562383969E+08, 2.884899528785471E+08, -1.845709362564749E+07,
2459986.500000000, A.D. 2023-Feb-11 00:00:00.0000, 1.515581660790288E+08, 2.972875977547103E+08, -1.608162635777180E+07,
2459993.500000000, A.D. 2023-Feb-18 00:00:00.0000, 1.420456593248286E+08, 3.056982060074614E+08, -1.368520497554645E+07,
2460000.500000000, A.D. 2023-Feb-25 00:00:00.0000, 1.323535703748821E+08, 3.137223410101144E+08, -1.127146590449235E+07,
2460007.500000000, A.D. 2023-Mar-04 00:00:00.0000, 1.224989926954988E+08, 3.213613309150283E+08, -8.843873909207538E+06,
2460014.500000000, A.D. 2023-Mar-11 00:00:00.0000, 1.124983675660113E+08, 3.286171908308868E+08, -6.405723772297218E+06,
2460021.500000000, A.D. 2023-Mar-18 00:00:00.0000, 1.023674791796304E+08, 3.354925493239124E+08, -3.960143063924655E+06,
2460028.500000000, A.D. 2023-Mar-25 00:00:00.0000, 9.212145540696852E+07, 3.419905793660336E+08, -1.510095831420332E+06,
2460035.500000000, A.D. 2023-Apr-01 00:00:00.0000, 8.177477381799668E+07, 3.481149341974843E+08, 9.416129574234039E+05,
2460042.500000000, A.D. 2023-Apr-08 00:00:00.0000, 7.134127159723146E+07, 3.538696893243770E+08, 3.392332527405098E+06,
2460049.500000000, A.D. 2023-Apr-15 00:00:00.0000, 6.083415634412304E+07, 3.592592894645537E+08, 5.839561224566832E+06,
2460056.500000000, A.D. 2023-Apr-22 00:00:00.0000, 5.026601896266921E+07, 3.642884972522654E+08, 8.280940963884160E+06,
2460063.500000000, A.D. 2023-Apr-29 00:00:00.0000, 3.964885084288947E+07, 3.689623457858015E+08, 1.071425123101290E+07,
2460070.500000000, A.D. 2023-May-06 00:00:00.0000, 2.899406311044519E+07, 3.732860965931091E+08, 1.313740303138693E+07,
2460077.500000000, A.D. 2023-May-13 00:00:00.0000, 1.831250655908489E+07, 3.772652018915066E+08, 1.554843287626928E+07,
2460084.500000000, A.D. 2023-May-20 00:00:00.0000, 7.614492145768340E+06, 3.809052704119878E+08, 1.794549680489188E+07,
2460091.500000000, A.D. 2023-May-27 00:00:00.0000, -3.090188060582660E+06, 3.842120365172129E+08, 2.032686447227988E+07,
2460098.500000000, A.D. 2023-Jun-03 00:00:00.0000, -1.379223967510518E+07, 3.871913323982562E+08, 2.269091333975324E+07,
2460105.500000000, A.D. 2023-Jun-10 00:00:00.0000, -2.448284472862225E+07, 3.898490630994985E+08, 2.503612299663737E+07,
2460112.500000000, A.D. 2023-Jun-17 00:00:00.0000, -3.515364042395653E+07, 3.921911840816215E+08, 2.736106962478068E+07,
2460119.500000000, A.D. 2023-Jun-24 00:00:00.0000, -4.579669774324340E+07, 3.942236811575838E+08, 2.966442059965312E+07,
2460126.500000000, A.D. 2023-Jul-01 00:00:00.0000, -5.640449977180937E+07, 3.959525534207032E+08, 3.194492928596210E+07,
2460133.500000000, A.D. 2023-Jul-08 00:00:00.0000, -6.696992150560234E+07, 3.973837997909981E+08, 3.420143025760943E+07,
2460140.500000000, A.D. 2023-Jul-15 00:00:00.0000, -7.748621248872907E+07, 3.985234061615452E+08, 3.643283483287117E+07,
2460147.500000000, A.D. 2023-Jul-22 00:00:00.0000, -8.794697881656268E+07, 3.993773319318451E+08, 3.863812651947540E+07,
$$EOE